[Satellite]
VERSION=1.1
NAME=GPS BIIR-09 (PRN 21)
NICKNAME=GPS BIIR-09 (PRN 21)
TLE1=1 27704U 03010A   15055.59012902 -.00000039  00000-0  00000+0 0  9990
TLE2=2 27704  53.4851 133.2737 0224957 248.9226 231.0912  2.00571364 87254
